ONEWEB-0108             
1 48076U 21025AL  23238.26845993  .00000075  00000+0  17182-3 0  9992
2 48076  87.9094 164.3008 0001823  78.6463 281.4870 13.13466673118970
ONEWEB-0169             
1 48077U 21025AM  23238.29809261 -.00000162  00000+0 -47796-3 0  9997
2 48077  87.9096 164.2959 0001656  74.6781 285.4531 13.13468712117636
ONEWEB-0176             
1 48210U 21031A   23238.26268903  .00000054  00000+0  11211-3 0  9993
2 48210  87.9033 133.9204 0001901  77.4343 282.6999 13.14500604113530
ONEWEB-0184             
1 48211U 21031B   23238.23733043  .00000309  00000+0  79961-3 0  9992
2 48211  87.9036 133.9040 0002828  94.4389 265.7064 13.14502985113506
ONEWEB-0179             
1 48212U 21031C   23238.12949409 -.00000202  00000+0 -57884-3 0  9990
2 48212  87.9034 133.9212 0002100  69.3645 290.7710 13.14503610113530
ONEWEB-0180             
1 48213U 21031D   23238.23944456  .00000320  00000+0  82799-3 0  9992
2 48213  87.9037 133.9013 0002080  71.3461 288.7894 13.14503508113434
ONEWEB-0218             
1 48214U 21031E   23238.26058043  .00000069  00000+0  15175-3 0  9998
2 48214  87.9034 133.8995 0003121  85.0185 275.1301 13.14500347113590
ONEWEB-0209             
1 48215U 21031F   23238.25001318  .00000307  00000+0  79342-3 0  9992
2 48215  87.9038 133.9416 0001955  72.7489 287.3854 13.14505056113597
